{
  "type": "FeatureCollection",
  "features": [
    {
      "type": "Feature",
      "properties": {
        "norad_id": 39617,
        "name": "ASTRA 5B (EGNOS/PRN 123)",
        "group": "gnss",
        "lat": 0.015100520294120094,
        "lon": 21.895424172907692,
        "alt_km": 35797.32283323218,
        "timestamp": "2025-12-06T18:50:10.410148+00:00",
        "meta_object_name": "ASTRA 5B (EGNOS/PRN 123)",
        "meta_object_id": "2014-011B",
        "meta_epoch": "2025-12-06T06:55:43.292928",
        "meta_mean_motion": 1.00268652,
        "meta_eccentricity": 0.00045817,
        "meta_inclination": 0.0512,
        "meta_ra_of_asc_node": 21.2549,
        "meta_arg_of_pericenter": 238.1652,
        "meta_mean_anomaly": 303.3448,
        "meta_ephemeris_type": 0,
        "meta_classification_type": "U",
        "meta_norad_cat_id": 39617,
        "meta_element_set_no": 999,
        "meta_rev_at_epoch": 4273,
        "meta_bstar": 0,
        "meta_mean_motion_dot": 1.45e-06,
        "meta_mean_motion_ddot": 0,
        "tle_line1": "1 39617U 14011B   25340.28869552  .00000145  00000+0  00000+0 0  9990",
        "tle_line2": "2 39617   0.0512  21.2549 0004581 238.1652 303.3448  1.00268652 42735"
      },
      "geometry": {
        "type": "Point",
        "coordinates": [
          21.895424172907692,
          0.015100520294120094
        ]
      }
    },
    {
      "type": "Feature",
      "properties": {
        "norad_id": 39620,
        "name": "COSMOS 2492 (754)",
        "group": "gnss",
        "lat": -51.507850058906584,
        "lon": 175.61411370240103,
        "alt_km": 19124.191326220516,
        "timestamp": "2025-12-06T18:50:10.410160+00:00",
        "meta_object_name": "COSMOS 2492 (754)",
        "meta_object_id": "2014-012A",
        "meta_epoch": "2025-12-02T17:14:30.403680",
        "meta_mean_motion": 2.13103072,
        "meta_eccentricity": 0.00141646,
        "meta_inclination": 65.4134,
        "meta_ra_of_asc_node": 320.6107,
        "meta_arg_of_pericenter": 311.0276,
        "meta_mean_anomaly": 48.8557,
        "meta_ephemeris_type": 0,
        "meta_classification_type": "U",
        "meta_norad_cat_id": 39620,
        "meta_element_set_no": 999,
        "meta_rev_at_epoch": 9105,
        "meta_bstar": 0,
        "meta_mean_motion_dot": -3.6e-07,
        "meta_mean_motion_ddot": 0,
        "tle_line1": "1 39620U 14012A   25336.71840745 -.00000036  00000+0  00000+0 0  9991",
        "tle_line2": "2 39620  65.4134 320.6107 0014164 311.0276  48.8557  2.13103072 91051"
      },
      "geometry": {
        "type": "Point",
        "coordinates": [
          175.61411370240103,
          -51.507850058906584
        ]
      }
    },
    {
      "type": "Feature",
      "properties": {
        "norad_id": 39635,
        "name": "IRNSS-1B",
        "group": "gnss",
        "lat": 4.992575156891099,
        "lon": 54.61762866405333,
        "alt_km": 35711.858946831584,
        "timestamp": "2025-12-06T18:50:10.410171+00:00",
        "meta_object_name": "IRNSS-1B",
        "meta_object_id": "2014-017A",
        "meta_epoch": "2025-12-04T19:28:38.496288",
        "meta_mean_motion": 1.00275997,
        "meta_eccentricity": 0.0017633,
        "meta_inclination": 28.8387,
        "meta_ra_of_asc_node": 243.7276,
        "meta_arg_of_pericenter": 183.5453,
        "meta_mean_anomaly": 353.8193,
        "meta_ephemeris_type": 0,
        "meta_classification_type": "U",
        "meta_norad_cat_id": 39635,
        "meta_element_set_no": 999,
        "meta_rev_at_epoch": 4284,
        "meta_bstar": 0,
        "meta_mean_motion_dot": 1.26e-06,
        "meta_mean_motion_ddot": 0,
        "tle_line1": "1 39635U 14017A   25338.81155667  .00000126  00000+0  00000+0 0  9996",
        "tle_line2": "2 39635  28.8387 243.7276 0017633 183.5453 353.8193  1.00275997 42844"
      },
      "geometry": {
        "type": "Point",
        "coordinates": [
          54.61762866405333,
          4.992575156891099
        ]
      }
    },
    {
      "type": "Feature",
      "properties": {
        "norad_id": 39727,
        "name": "LUCH 5V (SDCM/PRN 141)",
        "group": "gnss",
        "lat": 1.731439824630331,
        "lon": 93.06951982525193,
        "alt_km": 35805.63629036846,
        "timestamp": "2025-12-06T18:50:10.410182+00:00",
        "meta_object_name": "LUCH 5V (SDCM/PRN 141)",
        "meta_object_id": "2014-023A",
        "meta_epoch": "2025-12-06T07:16:03.844992",
        "meta_mean_motion": 1.00270891,
        "meta_eccentricity": 0.00045983,
        "meta_inclination": 4.6526,
        "meta_ra_of_asc_node": 71.5937,
        "meta_arg_of_pericenter": 201.692,
        "meta_mean_anomaly": 5.8537,
        "meta_ephemeris_type": 0,
        "meta_classification_type": "U",
        "meta_norad_cat_id": 39727,
        "meta_element_set_no": 999,
        "meta_rev_at_epoch": 4242,
        "meta_bstar": 0,
        "meta_mean_motion_dot": -2.64e-06,
        "meta_mean_motion_ddot": 0,
        "tle_line1": "1 39727U 14023A   25340.30282228 -.00000264  00000+0  00000+0 0  9990",
        "tle_line2": "2 39727   4.6526  71.5937 0004598 201.6920   5.8537  1.00270891 42429"
      },
      "geometry": {
        "type": "Point",
        "coordinates": [
          93.06951982525193,
          1.731439824630331
        ]
      }
    },
    {
      "type": "Feature",
      "properties": {
        "norad_id": 39741,
        "name": "GPS BIIF-6  (PRN 06)",
        "group": "gnss",
        "lat": -14.323903905072923,
        "lon": 168.707750094295,
        "alt_km": 20237.496260697873,
        "timestamp": "2025-12-06T18:50:10.410193+00:00",
        "meta_object_name": "GPS BIIF-6  (PRN 06)",
        "meta_object_id": "2014-026A",
        "meta_epoch": "2025-12-06T00:17:34.807488",
        "meta_mean_motion": 2.00561679,
        "meta_eccentricity": 0.00389955,
        "meta_inclination": 56.5861,
        "meta_ra_of_asc_node": 339.0382,
        "meta_arg_of_pericenter": 318.3017,
        "meta_mean_anomaly": 41.4163,
        "meta_ephemeris_type": 0,
        "meta_classification_type": "U",
        "meta_norad_cat_id": 39741,
        "meta_element_set_no": 999,
        "meta_rev_at_epoch": 8466,
        "meta_bstar": 0,
        "meta_mean_motion_dot": -7.7e-07,
        "meta_mean_motion_ddot": 0,
        "tle_line1": "1 39741U 14026A   25340.01220842 -.00000077  00000+0  00000+0 0  9993",
        "tle_line2": "2 39741  56.5861 339.0382 0038995 318.3017  41.4163  2.00561679 84661"
      },
      "geometry": {
        "type": "Point",
        "coordinates": [
          168.707750094295,
          -14.323903905072923
        ]
      }
    },
    {
      "type": "Feature",
      "properties": {
        "norad_id": 40001,
        "name": "COSMOS 2500 (755)",
        "group": "gnss",
        "lat": 60.15257096257733,
        "lon": 87.06411509368571,
        "alt_km": 19130.804146282884,
        "timestamp": "2025-12-06T18:50:10.410204+00:00",
        "meta_object_name": "COSMOS 2500 (755)",
        "meta_object_id": "2014-032A",
        "meta_epoch": "2025-12-06T04:12:43.562880",
        "meta_mean_motion": 2.13105836,
        "meta_eccentricity": 0.00082219,
        "meta_inclination": 65.3471,
        "meta_ra_of_asc_node": 320.256,
        "meta_arg_of_pericenter": 219.1808,
        "meta_mean_anomaly": 140.7541,
        "meta_ephemeris_type": 0,
        "meta_classification_type": "U",
        "meta_norad_cat_id": 40001,
        "meta_element_set_no": 999,
        "meta_rev_at_epoch": 8934,
        "meta_bstar": 0,
        "meta_mean_motion_dot": -4.9e-07,
        "meta_mean_motion_ddot": 0,
        "tle_line1": "1 40001U 14032A   25340.17550420 -.00000049  00000+0  00000+0 0  9995",
        "tle_line2": "2 40001  65.3471 320.2560 0008221 219.1808 140.7541  2.13105836 89348"
      },
      "geometry": {
        "type": "Point",
        "coordinates": [
          87.06411509368571,
          60.15257096257733
        ]
      }
    },
    {
      "type": "Feature",
      "properties": {
        "norad_id": 40105,
        "name": "GPS BIIF-7  (PRN 09)",
        "group": "gnss",
        "lat": 35.603907161109305,
        "lon": -113.6689250556352,
        "alt_km": 20092.806316418217,
        "timestamp": "2025-12-06T18:50:10.410215+00:00",
        "meta_object_name": "GPS BIIF-7  (PRN 09)",
        "meta_object_id": "2014-045A",
        "meta_epoch": "2025-12-05T14:26:16.975968",
        "meta_mean_motion": 2.00571979,
        "meta_eccentricity": 0.00328896,
        "meta_inclination": 55.2248,
        "meta_ra_of_asc_node": 96.1837,
        "meta_arg_of_pericenter": 119.6741,
        "meta_mean_anomaly": 240.6258,
        "meta_ephemeris_type": 0,
        "meta_classification_type": "U",
        "meta_norad_cat_id": 40105,
        "meta_element_set_no": 999,
        "meta_rev_at_epoch": 8219,
        "meta_bstar": 0,
        "meta_mean_motion_dot": -1.2e-07,
        "meta_mean_motion_ddot": 0,
        "tle_line1": "1 40105U 14045A   25339.60158537 -.00000012  00000+0  00000+0 0  9993",
        "tle_line2": "2 40105  55.2248  96.1837 0032889 119.6741 240.6258  2.00571979 82198"
      },
      "geometry": {
        "type": "Point",
        "coordinates": [
          -113.6689250556352,
          35.603907161109305
        ]
      }
    }
  ]
}